[{"OBJECT_NAME":"STARLINK-3591","OBJECT_ID":"2022-022U","EPOCH":"2026-03-09T03:52:57.036000","MEAN_MOTION":15.08840713,"ECCENTRICITY":0.00012411,"INCLINATION":53.2195,"RA_OF_ASC_NODE":11.4937,"ARG_OF_PERICENTER":83.3312,"MEAN_ANOMALY":276.7821,"EPHEMERIS_TYPE":0,"CLASSIFICATION_TYPE":"U","NORAD_CAT_ID":51870,"ELEMENT_SET_NO":999,"REV_AT_EPOCH":22308,"BSTAR":-4.7550801e-5,"MEAN_MOTION_DOT":-1.045e-5,"MEAN_MOTION_DDOT":0},{"OBJECT_NAME":"CZ-6A DEB","OBJECT_ID":"2024-140DW","EPOCH":"2026-03-09T12:42:27.831456","MEAN_MOTION":14.74987574,"ECCENTRICITY":0.01550337,"INCLINATION":88.9082,"RA_OF_ASC_NODE":275.4322,"ARG_OF_PERICENTER":135.579,"MEAN_ANOMALY":225.799,"EPHEMERIS_TYPE":0,"CLASSIFICATION_TYPE":"U","NORAD_CAT_ID":60717,"ELEMENT_SET_NO":999,"REV_AT_EPOCH":8391,"BSTAR":0.0030954876,"MEAN_MOTION_DOT":0.00025382,"MEAN_MOTION_DDOT":0}]
